{
  "type": "FeatureCollection",
  "features": [
    {
      "type": "Feature",
      "properties": {
        "norad_id": 33724,
        "name": "FENGYUN 1C DEB",
        "group": "fengyun-1c-debris",
        "lat": 24.11755081410973,
        "lon": 4.339064247548199,
        "alt_km": 837.0514874701521,
        "timestamp": "2025-12-24T05:51:19.895803+00:00",
        "meta_object_name": "FENGYUN 1C DEB",
        "meta_object_id": "1999-025DHM",
        "meta_epoch": "2025-12-22T06:40:37.155648",
        "meta_mean_motion": 14.19663244,
        "meta_eccentricity": 0.00279005,
        "meta_inclination": 98.6032,
        "meta_ra_of_asc_node": 6.3154,
        "meta_arg_of_pericenter": 154.2406,
        "meta_mean_anomaly": 269.5567,
        "meta_ephemeris_type": 0,
        "meta_classification_type": "U",
        "meta_norad_cat_id": 33724,
        "meta_element_set_no": 999,
        "meta_rev_at_epoch": 94097,
        "meta_bstar": 0.00040045162,
        "meta_mean_motion_dot": 8.07e-06,
        "meta_mean_motion_ddot": 0,
        "tle_line1": "1 33724U 99025DHM 25356.27820782  .00000807  00000+0  40045-3 0  9991",
        "tle_line2": "2 33724  98.6032   6.3154 0027900 154.2406 269.5567 14.19663244940977"
      },
      "geometry": {
        "type": "Point",
        "coordinates": [
          4.339064247548199,
          24.11755081410973
        ]
      }
    },
    {
      "type": "Feature",
      "properties": {
        "norad_id": 33726,
        "name": "FENGYUN 1C DEB",
        "group": "fengyun-1c-debris",
        "lat": 24.59233771186098,
        "lon": -53.9251393390158,
        "alt_km": 971.174164729533,
        "timestamp": "2025-12-24T05:51:19.895813+00:00",
        "meta_object_name": "FENGYUN 1C DEB",
        "meta_object_id": "1999-025DHP",
        "meta_epoch": "2025-12-22T07:25:21.024768",
        "meta_mean_motion": 14.14317357,
        "meta_eccentricity": 0.01922665,
        "meta_inclination": 98.6392,
        "meta_ra_of_asc_node": 120.2126,
        "meta_arg_of_pericenter": 3.7011,
        "meta_mean_anomaly": 25.3001,
        "meta_ephemeris_type": 0,
        "meta_classification_type": "U",
        "meta_norad_cat_id": 33726,
        "meta_element_set_no": 999,
        "meta_rev_at_epoch": 92067,
        "meta_bstar": 0.00027067796,
        "meta_mean_motion_dot": 5.74e-06,
        "meta_mean_motion_ddot": 0,
        "tle_line1": "1 33726U 99025DHP 25356.30927112  .00000574  00000+0  27068-3 0  9993",
        "tle_line2": "2 33726  98.6392 120.2126 0192266   3.7011  25.3001 14.14317357920673"
      },
      "geometry": {
        "type": "Point",
        "coordinates": [
          -53.9251393390158,
          24.59233771186098
        ]
      }
    },
    {
      "type": "Feature",
      "properties": {
        "norad_id": 33728,
        "name": "FENGYUN 1C DEB",
        "group": "fengyun-1c-debris",
        "lat": 77.67202596566366,
        "lon": -77.91652775735982,
        "alt_km": 561.9552525775061,
        "timestamp": "2025-12-24T05:51:19.895823+00:00",
        "meta_object_name": "FENGYUN 1C DEB",
        "meta_object_id": "1999-025DHR",
        "meta_epoch": "2025-12-19T03:08:31.669440",
        "meta_mean_motion": 14.92712258,
        "meta_eccentricity": 0.01477777,
        "meta_inclination": 98.9792,
        "meta_ra_of_asc_node": 49.9098,
        "meta_arg_of_pericenter": 194.4676,
        "meta_mean_anomaly": 165.2288,
        "meta_ephemeris_type": 0,
        "meta_classification_type": "U",
        "meta_norad_cat_id": 33728,
        "meta_element_set_no": 999,
        "meta_rev_at_epoch": 98395,
        "meta_bstar": 0.00039692023,
        "meta_mean_motion_dot": 4.984e-05,
        "meta_mean_motion_ddot": 0,
        "tle_line1": "1 33728U 99025DHR 25353.13092210  .00004984  00000+0  39692-3 0  9990",
        "tle_line2": "2 33728  98.9792  49.9098 0147777 194.4676 165.2288 14.92712258983955"
      },
      "geometry": {
        "type": "Point",
        "coordinates": [
          -77.91652775735982,
          77.67202596566366
        ]
      }
    },
    {
      "type": "Feature",
      "properties": {
        "norad_id": 33730,
        "name": "FENGYUN 1C DEB",
        "group": "fengyun-1c-debris",
        "lat": -63.86211647027955,
        "lon": -141.8462174270129,
        "alt_km": 688.7247754520331,
        "timestamp": "2025-12-24T05:51:19.895833+00:00",
        "meta_object_name": "FENGYUN 1C DEB",
        "meta_object_id": "1999-025DHT",
        "meta_epoch": "2025-12-17T10:18:00.572256",
        "meta_mean_motion": 14.63540792,
        "meta_eccentricity": 0.00393712,
        "meta_inclination": 99.0546,
        "meta_ra_of_asc_node": 49.6389,
        "meta_arg_of_pericenter": 356.5197,
        "meta_mean_anomaly": 3.5723,
        "meta_ephemeris_type": 0,
        "meta_classification_type": "U",
        "meta_norad_cat_id": 33730,
        "meta_element_set_no": 999,
        "meta_rev_at_epoch": 95748,
        "meta_bstar": 0.0011805307,
        "meta_mean_motion_dot": 6.139e-05,
        "meta_mean_motion_ddot": 0,
        "tle_line1": "1 33730U 99025DHT 25351.42917329  .00006139  00000+0  11805-2 0  9999",
        "tle_line2": "2 33730  99.0546  49.6389 0039371 356.5197   3.5723 14.63540792957483"
      },
      "geometry": {
        "type": "Point",
        "coordinates": [
          -141.8462174270129,
          -63.86211647027955
        ]
      }
    },
    {
      "type": "Feature",
      "properties": {
        "norad_id": 33731,
        "name": "FENGYUN 1C DEB",
        "group": "fengyun-1c-debris",
        "lat": 5.70743894701115,
        "lon": -158.30764084598087,
        "alt_km": 992.0989357459011,
        "timestamp": "2025-12-24T05:51:19.895847+00:00",
        "meta_object_name": "FENGYUN 1C DEB",
        "meta_object_id": "1999-025DHU",
        "meta_epoch": "2025-12-23T18:42:18.711072",
        "meta_mean_motion": 13.95379717,
        "meta_eccentricity": 0.012845,
        "meta_inclination": 99.4443,
        "meta_ra_of_asc_node": 20.2634,
        "meta_arg_of_pericenter": 26.0646,
        "meta_mean_anomaly": 334.6908,
        "meta_ephemeris_type": 0,
        "meta_classification_type": "U",
        "meta_norad_cat_id": 33731,
        "meta_element_set_no": 999,
        "meta_rev_at_epoch": 90603,
        "meta_bstar": 0.0015134973,
        "meta_mean_motion_dot": 2.151e-05,
        "meta_mean_motion_ddot": 0,
        "tle_line1": "1 33731U 99025DHU 25357.77938323  .00002151  00000+0  15135-2 0  9991",
        "tle_line2": "2 33731  99.4443  20.2634 0128450  26.0646 334.6908 13.95379717906036"
      },
      "geometry": {
        "type": "Point",
        "coordinates": [
          -158.30764084598087,
          5.70743894701115
        ]
      }
    },
    {
      "type": "Feature",
      "properties": {
        "norad_id": 33733,
        "name": "FENGYUN 1C DEB",
        "group": "fengyun-1c-debris",
        "lat": -10.670693331255839,
        "lon": -97.61636409831912,
        "alt_km": 757.2103915245052,
        "timestamp": "2025-12-24T05:51:19.895858+00:00",
        "meta_object_name": "FENGYUN 1C DEB",
        "meta_object_id": "1999-025DHW",
        "meta_epoch": "2025-12-14T05:17:42.025920",
        "meta_mean_motion": 14.31052291,
        "meta_eccentricity": 0.0080503,
        "meta_inclination": 99.1007,
        "meta_ra_of_asc_node": 73.621,
        "meta_arg_of_pericenter": 166.27,
        "meta_mean_anomaly": 251.3144,
        "meta_ephemeris_type": 0,
        "meta_classification_type": "U",
        "meta_norad_cat_id": 33733,
        "meta_element_set_no": 999,
        "meta_rev_at_epoch": 90469,
        "meta_bstar": 0.0032633155,
        "meta_mean_motion_dot": 8.868e-05,
        "meta_mean_motion_ddot": 0,
        "tle_line1": "1 33733U 99025DHW 25348.22062530  .00008868  00000+0  32633-2 0  9994",
        "tle_line2": "2 33733  99.1007  73.6210 0080503 166.2700 251.3144 14.31052291904690"
      },
      "geometry": {
        "type": "Point",
        "coordinates": [
          -97.61636409831912,
          -10.670693331255839
        ]
      }
    },
    {
      "type": "Feature",
      "properties": {
        "norad_id": 33737,
        "name": "FENGYUN 1C DEB",
        "group": "fengyun-1c-debris",
        "lat": -56.56187503872497,
        "lon": -155.96552759300653,
        "alt_km": 832.2812162903856,
        "timestamp": "2025-12-24T05:51:19.895868+00:00",
        "meta_object_name": "FENGYUN 1C DEB",
        "meta_object_id": "1999-025DJA",
        "meta_epoch": "2025-12-23T01:37:13.912896",
        "meta_mean_motion": 14.03039814,
        "meta_eccentricity": 0.01283618,
        "meta_inclination": 98.3387,
        "meta_ra_of_asc_node": 190.1231,
        "meta_arg_of_pericenter": 253.8161,
        "meta_mean_anomaly": 228.6943,
        "meta_ephemeris_type": 0,
        "meta_classification_type": "U",
        "meta_norad_cat_id": 33737,
        "meta_element_set_no": 999,
        "meta_rev_at_epoch": 88885,
        "meta_bstar": 0.0012772587,
        "meta_mean_motion_dot": 2.095e-05,
        "meta_mean_motion_ddot": 0,
        "tle_line1": "1 33737U 99025DJA 25357.06752214  .00002095  00000+0  12773-2 0  9994",
        "tle_line2": "2 33737  98.3387 190.1231 0128361 253.8161 228.6943 14.03039814888851"
      },
      "geometry": {
        "type": "Point",
        "coordinates": [
          -155.96552759300653,
          -56.56187503872497
        ]
      }
    }
  ]
}